[{"OBJECT_NAME":"STARLINK-4589","OBJECT_ID":"2022-107AY","EPOCH":"2026-03-09T18:17:22.603488","MEAN_MOTION":15.08844063,"ECCENTRICITY":0.00014113,"INCLINATION":53.2158,"RA_OF_ASC_NODE":263.8466,"ARG_OF_PERICENTER":103.6115,"MEAN_ANOMALY":256.5035,"EPHEMERIS_TYPE":0,"CLASSIFICATION_TYPE":"U","NORAD_CAT_ID":53746,"ELEMENT_SET_NO":999,"REV_AT_EPOCH":19460,"BSTAR":-2.025779e-6,"MEAN_MOTION_DOT":-3.2e-6,"MEAN_MOTION_DDOT":0},{"OBJECT_NAME":"ONEWEB-0618","OBJECT_ID":"2023-004V","EPOCH":"2026-03-09T21:27:12.326688","MEAN_MOTION":15.11974897,"ECCENTRICITY":0.00107842,"INCLINATION":86.9069,"RA_OF_ASC_NODE":217.8931,"ARG_OF_PERICENTER":307.7231,"MEAN_ANOMALY":52.303,"EPHEMERIS_TYPE":0,"CLASSIFICATION_TYPE":"U","NORAD_CAT_ID":55159,"ELEMENT_SET_NO":999,"REV_AT_EPOCH":16725,"BSTAR":0.00049587895,"MEAN_MOTION_DOT":8.547e-5,"MEAN_MOTION_DDOT":0}]
